{"type": "FeatureCollection", "features": [{"type": "Feature", "properties": {"norad_id": 66454, "name": "VIASAT-3 F2", "group": "last-30-days", "lat": 2.5666135072387974, "lon": -39.67270066652733, "alt_km": 23971.251515880955, "timestamp": "2025-12-12T03:50:51.175668+00:00", "meta": {"OBJECT_NAME": "VIASAT-3 F2", "OBJECT_ID": "2025-261A", "EPOCH": "2025-12-08T12:11:15.383616", "MEAN_MOTION": 2.19142646, "ECCENTRICITY": 0.22792154, "INCLINATION": 5.457, "RA_OF_ASC_NODE": 292.6501, "ARG_OF_PERICENTER": 190.5469, "MEAN_ANOMALY": 204.5187, "EPHEMERIS_TYPE": 0, "CLASSIFICATION_TYPE": "U", "NORAD_CAT_ID": 66454, "ELEMENT_SET_NO": 999, "REV_AT_EPOCH": 55, "BSTAR": 0, "MEAN_MOTION_DOT": -8.1e-07, "MEAN_MOTION_DDOT": 0}, "tle": {"line1": "1 66454U 25261A   25342.50781694 -.00000081  00000+0  00000+0 0  9995", "line2": "2 66454   5.4570 292.6501 2279215 190.5469 204.5187  2.19142646   557"}}, "geometry": {"type": "Point", "coordinates": [-39.67270066652733, 2.5666135072387974]}}, {"type": "Feature", "properties": {"norad_id": 66455, "name": "ATLAS 5 CENTAUR R/B", "group": "last-30-days", "lat": -4.833361672275225, "lon": 163.35177229635383, "alt_km": 13433.39974008043, "timestamp": "2025-12-12T03:50:51.175720+00:00", "meta": {"OBJECT_NAME": "ATLAS 5 CENTAUR R/B", "OBJECT_ID": "2025-261B", "EPOCH": "2025-12-11T15:16:36.105600", "MEAN_MOTION": 2.28259842, "ECCENTRICITY": 0.23294675, "INCLINATION": 6.1471, "RA_OF_ASC_NODE": 291.7267, "ARG_OF_PERICENTER": 186.2623, "MEAN_ANOMALY": 318.1786, "EPHEMERIS_TYPE": 0, "CLASSIFICATION_TYPE": "U", "NORAD_CAT_ID": 66455, "ELEMENT_SET_NO": 999, "REV_AT_EPOCH": 62, "BSTAR": 0, "MEAN_MOTION_DOT": -7.8e-07, "MEAN_MOTION_DDOT": 0}, "tle": {"line1": "1 66455U 25261B   25345.63652900 -.00000078  00000+0  00000+0 0  9996", "line2": "2 66455   6.1471 291.7267 2329467 186.2623 318.1786  2.28259842   626"}}, "geometry": {"type": "Point", "coordinates": [163.35177229635383, -4.833361672275225]}}, {"type": "Feature", "properties": {"norad_id": 66456, "name": "STARLINK-35643", "group": "last-30-days", "lat": 4.349971653386503, "lon": -109.73029251596311, "alt_km": 443.89100353839603, "timestamp": "2025-12-12T03:50:51.175743+00:00", "meta": {"OBJECT_NAME": "STARLINK-35643", "OBJECT_ID": "2025-262A", "EPOCH": "2025-12-11T14:00:01.999872", "MEAN_MOTION": 15.40559128, "ECCENTRICITY": 0.00014783, "INCLINATION": 43, "RA_OF_ASC_NODE": 78.2771, "ARG_OF_PERICENTER": 292.7962, "MEAN_ANOMALY": 277.0235, "EPHEMERIS_TYPE": 0, "CLASSIFICATION_TYPE": "U", "NORAD_CAT_ID": 66456, "ELEMENT_SET_NO": 999, "REV_AT_EPOCH": 545, "BSTAR": 0.0020671847, "MEAN_MOTION_DOT": 0.00086628, "MEAN_MOTION_DDOT": 0}, "tle": {"line1": "1 66456U 25262A   25345.58335648  .00086628  00000+0  20672-2 0  9993", "line2": "2 66456  43.0000  78.2771 0001478 292.7962 277.0235 15.40559128  5455"}}, "geometry": {"type": "Point", "coordinates": [-109.73029251596311, 4.349971653386503]}}, {"type": "Feature", "properties": {"norad_id": 66457, "name": "STARLINK-35466", "group": "last-30-days", "lat": -12.449756790528392, "lon": -91.40266492353732, "alt_km": 445.46425688053023, "timestamp": "2025-12-12T03:50:51.175756+00:00", "meta": {"OBJECT_NAME": "STARLINK-35466", "OBJECT_ID": "2025-262B", "EPOCH": "2025-12-11T14:00:01.999872", "MEAN_MOTION": 15.40781809, "ECCENTRICITY": 0.00010785, "INCLINATION": 42.9997, "RA_OF_ASC_NODE": 78.2176, "ARG_OF_PERICENTER": 247.8631, "MEAN_ANOMALY": 346.7267, "EPHEMERIS_TYPE": 0, "CLASSIFICATION_TYPE": "U", "NORAD_CAT_ID": 66457, "ELEMENT_SET_NO": 999, "REV_AT_EPOCH": 545, "BSTAR": -0.0061927042, "MEAN_MOTION_DOT": -0.00251328, "MEAN_MOTION_DDOT": 0}, "tle": {"line1": "1 66457U 25262B   25345.58335648 -.00251328  00000+0 -61927-2 0  9995", "line2": "2 66457  42.9997  78.2176 0001078 247.8631 346.7267 15.40781809  5450"}}, "geometry": {"type": "Point", "coordinates": [-91.40266492353732, -12.449756790528392]}}, {"type": "Feature", "properties": {"norad_id": 66458, "name": "STARLINK-35684", "group": "last-30-days", "lat": -4.088983437709405, "lon": -100.67862252628032, "alt_km": 444.77777989272454, "timestamp": "2025-12-12T03:50:51.175768+00:00", "meta": {"OBJECT_NAME": "STARLINK-35684", "OBJECT_ID": "2025-262C", "EPOCH": "2025-12-11T14:00:01.999872", "MEAN_MOTION": 15.40814049, "ECCENTRICITY": 9.244e-05, "INCLINATION": 42.9998, "RA_OF_ASC_NODE": 78.2468, "ARG_OF_PERICENTER": 247.6399, "MEAN_ANOMALY": 334.5094, "EPHEMERIS_TYPE": 0, "CLASSIFICATION_TYPE": "U", "NORAD_CAT_ID": 66458, "ELEMENT_SET_NO": 999, "REV_AT_EPOCH": 545, "BSTAR": -0.0073971895, "MEAN_MOTION_DOT": -0.00298636, "MEAN_MOTION_DDOT": 0}, "tle": {"line1": "1 66458U 25262C   25345.58335648 -.00298636  00000+0 -73972-2 0  9992", "line2": "2 66458  42.9998  78.2468 0000924 247.6399 334.5094 15.40814049  5450"}}, "geometry": {"type": "Point", "coordinates": [-100.67862252628032, -4.088983437709405]}}, {"type": "Feature", "properties": {"norad_id": 66459, "name": "STARLINK-35449", "group": "last-30-days", "lat": -20.50690734155095, "lon": -81.47564564357896, "alt_km": 446.0423285190391, "timestamp": "2025-12-12T03:50:51.175780+00:00", "meta": {"OBJECT_NAME": "STARLINK-35449", "OBJECT_ID": "2025-262D", "EPOCH": "2025-12-11T14:00:01.999872", "MEAN_MOTION": 15.40563139, "ECCENTRICITY": 0.00015149, "INCLINATION": 43.0003, "RA_OF_ASC_NODE": 78.1856, "ARG_OF_PERICENTER": 290.496, "MEAN_ANOMALY": 316.6405, "EPHEMERIS_TYPE": 0, "CLASSIFICATION_TYPE": "U", "NORAD_CAT_ID": 66459, "ELEMENT_SET_NO": 999, "REV_AT_EPOCH": 545, "BSTAR": 0.0019684807, "MEAN_MOTION_DOT": 0.00082442, "MEAN_MOTION_DDOT": 0}, "tle": {"line1": "1 66459U 25262D   25345.58335648  .00082442  00000+0  19685-2 0  9998", "line2": "2 66459  43.0003  78.1856 0001514 290.4960 316.6405 15.40563139  5454"}}, "geometry": {"type": "Point", "coordinates": [-81.47564564357896, -20.50690734155095]}}, {"type": "Feature", "properties": {"norad_id": 66460, "name": "STARLINK-35424", "group": "last-30-days", "lat": -27.907011307513137, "lon": -70.53431850231313, "alt_km": 446.04199674927713, "timestamp": "2025-12-12T03:50:51.175792+00:00", "meta": {"OBJECT_NAME": "STARLINK-35424", "OBJECT_ID": "2025-262E", "EPOCH": "2025-12-11T14:00:01.999872", "MEAN_MOTION": 15.40641564, "ECCENTRICITY": 0.00012412, "INCLINATION": 43, "RA_OF_ASC_NODE": 78.1551, "ARG_OF_PERICENTER": 268.7887, "MEAN_ANOMALY": 350.6552, "EPHEMERIS_TYPE": 0, "CLASSIFICATION_TYPE": "U", "NORAD_CAT_ID": 66460, "ELEMENT_SET_NO": 999, "REV_AT_EPOCH": 545, "BSTAR": 0.0013421463, "MEAN_MOTION_DOT": 0.00056065, "MEAN_MOTION_DDOT": 0}, "tle": {"line1": "1 66460U 25262E   25345.58335648  .00056065  00000+0  13421-2 0  9994", "line2": "2 66460  43.0000  78.1551 0001241 268.7887 350.6552 15.40641564  5458"}}, "geometry": {"type": "Point", "coordinates": [-70.53431850231313, -27.907011307513137]}}, {"type": "Feature", "properties": {"norad_id": 66461, "name": "STARLINK-35132", "group": "last-30-days", "lat": -34.3157254057076, "lon": -58.10720579699089, "alt_km": 446.70511544512283, "timestamp": "2025-12-12T03:50:51.175803+00:00", "meta": {"OBJECT_NAME": "STARLINK-35132", "OBJECT_ID": "2025-262F", "EPOCH": "2025-12-11T14:00:01.999872", "MEAN_MOTION": 15.40556535, "ECCENTRICITY": 0.00017561, "INCLINATION": 43.0002, "RA_OF_ASC_NODE": 78.1244, "ARG_OF_PERICENTER": 303.6255, "MEAN_ANOMALY": 328.3919, "EPHEMERIS_TYPE": 0, "CLASSIFICATION_TYPE": "U", "NORAD_CAT_ID": 66461, "ELEMENT_SET_NO": 999, "REV_AT_EPOCH": 545, "BSTAR": 0.0024317282, "MEAN_MOTION_DOT": 0.00102159, "MEAN_MOTION_DDOT": 0}, "tle": {"line1": "1 66461U 25262F   25345.58335648  .00102159  00000+0  24317-2 0  9997", "line2": "2 66461  43.0002  78.1244 0001756 303.6255 328.3919 15.40556535  5451"}}, "geometry": {"type": "Point", "coordinates": [-58.10720579699089, -34.3157254057076]}}, {"type": "Feature", "properties": {"norad_id": 66462, "name": "STARLINK-35499", "group": "last-30-days", "lat": -39.281840295634055, "lon": -43.85767363201443, "alt_km": 446.93178332950447, "timestamp": "2025-12-12T03:50:51.175814+00:00", "meta": {"OBJECT_NAME": "STARLINK-35499", "OBJECT_ID": "2025-262G", "EPOCH": "2025-12-11T14:00:01.999872", "MEAN_MOTION": 15.40578081, "ECCENTRICITY": 0.00011052, "INCLINATION": 43.0003, "RA_OF_ASC_NODE": 78.093, "ARG_OF_PERICENTER": 294.6826, "MEAN_ANOMALY": 349.7953, "EPHEMERIS_TYPE": 0, "CLASSIFICATION_TYPE": "U", "NORAD_CAT_ID": 66462, "ELEMENT_SET_NO": 999, "REV_AT_EPOCH": 545, "BSTAR": 0.001453706, "MEAN_MOTION_DOT": 0.00060659, "MEAN_MOTION_DDOT": 0}, "tle": {"line1": "1 66462U 25262G   25345.58335648  .00060659  00000+0  14537-2 0  9999", "line2": "2 66462  43.0003  78.0930 0001105 294.6826 349.7953 15.40578081  5450"}}, "geometry": {"type": "Point", "coordinates": [-43.85767363201443, -39.281840295634055]}}, {"type": "Feature", "properties": {"norad_id": 66463, "name": "STARLINK-35463", "group": "last-30-days", "lat": -42.90837758416983, "lon": -11.225007936841767, "alt_km": 446.50514204711, "timestamp": "2025-12-12T03:50:51.175825+00:00", "meta": {"OBJECT_NAME": "STARLINK-35463", "OBJECT_ID": "2025-262H", "EPOCH": "2025-12-11T14:00:01.999872", "MEAN_MOTION": 15.40633339, "ECCENTRICITY": 0.00013378, "INCLINATION": 43.0007, "RA_OF_ASC_NODE": 78.0332, "ARG_OF_PERICENTER": 262.8033, "MEAN_ANOMALY": 46.3324, "EPHEMERIS_TYPE": 0, "CLASSIFICATION_TYPE": "U", "NORAD_CAT_ID": 66463, "ELEMENT_SET_NO": 999, "REV_AT_EPOCH": 545, "BSTAR": 0.0014360793, "MEAN_MOTION_DOT": 0.00060025, "MEAN_MOTION_DDOT": 0}, "tle": {"line1": "1 66463U 25262H   25345.58335648  .00060025  00000+0  14361-2 0  9992", "line2": "2 66463  43.0007  78.0332 0001337 262.8033  46.3324 15.40633339  5455"}}, "geometry": {"type": "Point", "coordinates": [-11.225007936841767, -42.90837758416983]}}]}